[{"OBJECT_NAME":"STARLINK-36855","OBJECT_ID":"2026-044W","EPOCH":"2026-03-23T10:00:03.000096","MEAN_MOTION":15.75151932,"ECCENTRICITY":0.0001561,"INCLINATION":97.2843,"RA_OF_ASC_NODE":43.2666,"ARG_OF_PERICENTER":113.7513,"MEAN_ANOMALY":230.8041,"EPHEMERIS_TYPE":0,"CLASSIFICATION_TYPE":"U","NORAD_CAT_ID":68121,"ELEMENT_SET_NO":999,"REV_AT_EPOCH":355,"BSTAR":-2.7743e-5,"MEAN_MOTION_DOT":-4.259e-5,"MEAN_MOTION_DDOT":0},{"OBJECT_NAME":"STARLINK-36366","OBJECT_ID":"2026-044X","EPOCH":"2026-03-23T10:00:03.000096","MEAN_MOTION":15.75140376,"ECCENTRICITY":0.0001488,"INCLINATION":97.2845,"RA_OF_ASC_NODE":43.2684,"ARG_OF_PERICENTER":88.2696,"MEAN_ANOMALY":258.2881,"EPHEMERIS_TYPE":0,"CLASSIFICATION_TYPE":"U","NORAD_CAT_ID":68122,"ELEMENT_SET_NO":999,"REV_AT_EPOCH":360,"BSTAR":0.00021956,"MEAN_MOTION_DOT":0.00032674,"MEAN_MOTION_DDOT":0},{"OBJECT_NAME":"STARLINK-36922","OBJECT_ID":"2026-044Y","EPOCH":"2026-03-23T10:00:03.000096","MEAN_MOTION":15.7508157,"ECCENTRICITY":0.0001336,"INCLINATION":97.2843,"RA_OF_ASC_NODE":43.2744,"ARG_OF_PERICENTER":109.1823,"MEAN_ANOMALY":251.3898,"EPHEMERIS_TYPE":0,"CLASSIFICATION_TYPE":"U","NORAD_CAT_ID":68123,"ELEMENT_SET_NO":999,"REV_AT_EPOCH":360,"BSTAR":0.00090321,"MEAN_MOTION_DOT":0.00136118,"MEAN_MOTION_DDOT":0},{"OBJECT_NAME":"STARLINK-36938","OBJECT_ID":"2026-044Z","EPOCH":"2026-03-23T10:00:03.000096","MEAN_MOTION":15.80753229,"ECCENTRICITY":0.0001685,"INCLINATION":97.284,"RA_OF_ASC_NODE":43.2908,"ARG_OF_PERICENTER":100.2706,"MEAN_ANOMALY":299.0164,"EPHEMERIS_TYPE":0,"CLASSIFICATION_TYPE":"U","NORAD_CAT_ID":68124,"ELEMENT_SET_NO":999,"REV_AT_EPOCH":360,"BSTAR":0.00055954,"MEAN_MOTION_DOT":0.00108065,"MEAN_MOTION_DDOT":0},{"OBJECT_NAME":"STARLINK-36839","OBJECT_ID":"2026-044AA","EPOCH":"2026-03-23T10:00:03.000096","MEAN_MOTION":15.75110646,"ECCENTRICITY":0.0001421,"INCLINATION":97.2845,"RA_OF_ASC_NODE":43.2716,"ARG_OF_PERICENTER":94.2148,"MEAN_ANOMALY":260.3524,"EPHEMERIS_TYPE":0,"CLASSIFICATION_TYPE":"U","NORAD_CAT_ID":68125,"ELEMENT_SET_NO":999,"REV_AT_EPOCH":355,"BSTAR":0.00037047,"MEAN_MOTION_DOT":0.00055296,"MEAN_MOTION_DDOT":0},{"OBJECT_NAME":"ECHOSTAR 25","OBJECT_ID":"2026-045A","EPOCH":"2026-03-19T02:28:16.915584","MEAN_MOTION":1.79885153,"ECCENTRICITY":0.47494248,"INCLINATION":10.0329,"RA_OF_ASC_NODE":67.2654,"ARG_OF_PERICENTER":180.744,"MEAN_ANOMALY":178.4031,"EPHEMERIS_TYPE":0,"CLASSIFICATION_TYPE":"U","NORAD_CAT_ID":68126,"ELEMENT_SET_NO":999,"REV_AT_EPOCH":19,"BSTAR":0,"MEAN_MOTION_DOT":-4.7e-7,"MEAN_MOTION_DDOT":0},{"OBJECT_NAME":"ICOR SV","OBJECT_ID":"2026-046A","EPOCH":"2026-03-13T21:49:43.816224","MEAN_MOTION":15.82606913,"ECCENTRICITY":0.0140888,"INCLINATION":123.0797,"RA_OF_ASC_NODE":224.1306,"ARG_OF_PERICENTER":188.2572,"MEAN_ANOMALY":171.617,"EPHEMERIS_TYPE":0,"CLASSIFICATION_TYPE":"U","NORAD_CAT_ID":68127,"ELEMENT_SET_NO":999,"REV_AT_EPOCH":29,"BSTAR":0.0010434,"MEAN_MOTION_DOT":0.00482503,"MEAN_MOTION_DDOT":9.2133e-5},{"OBJECT_NAME":"FIREFLY ALPHA R/B","OBJECT_ID":"2026-046B","EPOCH":"2026-03-23T10:41:43.321056","MEAN_MOTION":15.56801878,"ECCENTRICITY":0.0015092,"INCLINATION":123.0936,"RA_OF_ASC_NODE":265.7629,"ARG_OF_PERICENTER":7.8168,"MEAN_ANOMALY":352.3125,"EPHEMERIS_TYPE":0,"CLASSIFICATION_TYPE":"U","NORAD_CAT_ID":68128,"ELEMENT_SET_NO":999,"REV_AT_EPOCH":178,"BSTAR":0.00057067,"MEAN_MOTION_DOT":0.00041516,"MEAN_MOTION_DDOT":0},{"OBJECT_NAME":"GUOWANG GROUP 20 OBJECT A","OBJECT_ID":"2026-047A","EPOCH":"2026-03-22T13:05:01.667616","MEAN_MOTION":14.02072847,"ECCENTRICITY":0.00040889,"INCLINATION":50.0053,"RA_OF_ASC_NODE":18.0627,"ARG_OF_PERICENTER":294.0185,"MEAN_ANOMALY":66.029,"EPHEMERIS_TYPE":0,"CLASSIFICATION_TYPE":"U","NORAD_CAT_ID":68129,"ELEMENT_SET_NO":999,"REV_AT_EPOCH":137,"BSTAR":2.948776e-5,"MEAN_MOTION_DOT":-1.05e-6,"MEAN_MOTION_DDOT":0},{"OBJECT_NAME":"GUOWANG GROUP 20 OBJECT B","OBJECT_ID":"2026-047B","EPOCH":"2026-03-22T13:03:15.297984","MEAN_MOTION":14.02358693,"ECCENTRICITY":0.00023625,"INCLINATION":50.0054,"RA_OF_ASC_NODE":18.0527,"ARG_OF_PERICENTER":288.5351,"MEAN_ANOMALY":71.5296,"EPHEMERIS_TYPE":0,"CLASSIFICATION_TYPE":"U","NORAD_CAT_ID":68130,"ELEMENT_SET_NO":999,"REV_AT_EPOCH":136,"BSTAR":5.5299926e-5,"MEAN_MOTION_DOT":-6.6e-7,"MEAN_MOTION_DDOT":0},{"OBJECT_NAME":"GUOWANG GROUP 20 OBJECT C","OBJECT_ID":"2026-047C","EPOCH":"2026-03-22T13:01:46.480512","MEAN_MOTION":14.02708744,"ECCENTRICITY":0.00033089,"INCLINATION":50.0022,"RA_OF_ASC_NODE":18.0458,"ARG_OF_PERICENTER":293.7898,"MEAN_ANOMALY":66.2659,"EPHEMERIS_TYPE":0,"CLASSIFICATION_TYPE":"U","NORAD_CAT_ID":68131,"ELEMENT_SET_NO":999,"REV_AT_EPOCH":137,"BSTAR":2.6991232e-5,"MEAN_MOTION_DOT":-1.09e-6,"MEAN_MOTION_DDOT":0},{"OBJECT_NAME":"GUOWANG GROUP 20 OBJECT D","OBJECT_ID":"2026-047D","EPOCH":"2026-03-19T03:00:48.676032","MEAN_MOTION":14.05881519,"ECCENTRICITY":0.0008434,"INCLINATION":50.0078,"RA_OF_ASC_NODE":31.9684,"ARG_OF_PERICENTER":289.4802,"MEAN_ANOMALY":70.5192,"EPHEMERIS_TYPE":0,"CLASSIFICATION_TYPE":"U","NORAD_CAT_ID":68132,"ELEMENT_SET_NO":999,"REV_AT_EPOCH":88,"BSTAR":3.692038e-6,"MEAN_MOTION_DOT":-1.46e-6,"MEAN_MOTION_DDOT":0},{"OBJECT_NAME":"GUOWANG GROUP 20 OBJECT E","OBJECT_ID":"2026-047E","EPOCH":"2026-03-22T07:51:30.148128","MEAN_MOTION":14.03282701,"ECCENTRICITY":0.00018453,"INCLINATION":50.0037,"RA_OF_ASC_NODE":18.9087,"ARG_OF_PERICENTER":286.6306,"MEAN_ANOMALY":73.4395,"EPHEMERIS_TYPE":0,"CLASSIFICATION_TYPE":"U","NORAD_CAT_ID":68133,"ELEMENT_SET_NO":999,"REV_AT_EPOCH":134,"BSTAR":2.1599298e-5,"MEAN_MOTION_DOT":-1.17e-6,"MEAN_MOTION_DDOT":0},{"OBJECT_NAME":"GUOWANG GROUP 20 OBJECT F","OBJECT_ID":"2026-047F","EPOCH":"2026-03-22T12:56:16.652832","MEAN_MOTION":14.03853988,"ECCENTRICITY":0.00015499,"INCLINATION":50.0098,"RA_OF_ASC_NODE":18.0376,"ARG_OF_PERICENTER":290.5042,"MEAN_ANOMALY":69.5697,"EPHEMERIS_TYPE":0,"CLASSIFICATION_TYPE":"U","NORAD_CAT_ID":68134,"ELEMENT_SET_NO":999,"REV_AT_EPOCH":136,"BSTAR":8.0291987e-5,"MEAN_MOTION_DOT":-2.4e-7,"MEAN_MOTION_DDOT":0},{"OBJECT_NAME":"GUOWANG GROUP 20 OBJECT G","OBJECT_ID":"2026-047G","EPOCH":"2026-03-22T14:39:59.859936","MEAN_MOTION":14.03554926,"ECCENTRICITY":0.00023781,"INCLINATION":50.013,"RA_OF_ASC_NODE":17.7516,"ARG_OF_PERICENTER":303.3923,"MEAN_ANOMALY":56.6754,"EPHEMERIS_TYPE":0,"CLASSIFICATION_TYPE":"U","NORAD_CAT_ID":68135,"ELEMENT_SET_NO":999,"REV_AT_EPOCH":138,"BSTAR":0.00011610707,"MEAN_MOTION_DOT":3.2e-7,"MEAN_MOTION_DDOT":0},{"OBJECT_NAME":"GUOWANG GROUP 20 OBJECT H","OBJECT_ID":"2026-047H","EPOCH":"2026-03-22T12:54:53.844480","MEAN_MOTION":14.04117144,"ECCENTRICITY":0.00028835,"INCLINATION":50.009,"RA_OF_ASC_NODE":18.0296,"ARG_OF_PERICENTER":313.7948,"MEAN_ANOMALY":46.2718,"EPHEMERIS_TYPE":0,"CLASSIFICATION_TYPE":"U","NORAD_CAT_ID":68136,"ELEMENT_SET_NO":999,"REV_AT_EPOCH":136,"BSTAR":3.5642897e-5,"MEAN_MOTION_DOT":-9.5e-7,"MEAN_MOTION_DDOT":0}]
