STARLINK-36855          
1 68121U 26044W   26082.41670139 -.00004259  00000+0 -27743-4 0  9991
2 68121  97.2843  43.2666 0001561 113.7513 230.8041 15.75151932  3554
STARLINK-36366          
1 68122U 26044X   26082.41670139  .00032674  00000+0  21956-3 0  9991
2 68122  97.2845  43.2684 0001488  88.2696 258.2881 15.75140376  3605
STARLINK-36922          
1 68123U 26044Y   26082.41670139  .00136118  00000+0  90321-3 0  9992
2 68123  97.2843  43.2744 0001336 109.1823 251.3898 15.75081570  3600
STARLINK-36938          
1 68124U 26044Z   26082.41670139  .00108065  00000+0  55954-3 0  9996
2 68124  97.2840  43.2908 0001685 100.2706 299.0164 15.80753229  3607
STARLINK-36839          
1 68125U 26044AA  26082.41670139  .00055296  00000+0  37047-3 0  9997
2 68125  97.2845  43.2716 0001421  94.2148 260.3524 15.75110646  3559
ECHOSTAR 25             
1 68126U 26045A   26078.10297356 -.00000047  00000+0  00000+0 0  9996
2 68126  10.0329  67.2654 4749424 180.7440 178.4031  1.79885153   199
ICOR SV                 
1 68127U 26046A   26072.90953491  .00482503  92133-4  10434-2 0  9997
2 68127 123.0797 224.1306 0140888 188.2572 171.6170 15.82606913   290
FIREFLY ALPHA R/B       
1 68128U 26046B   26082.44564029  .00041516  00000+0  57067-3 0  9999
2 68128 123.0936 265.7629 0015092   7.8168 352.3125 15.56801878  1781
GUOWANG GROUP 20 OBJECT*
1 68129U 26047A   26081.54515819 -.00000105  00000+0  29488-4 0  9991
2 68129  50.0053  18.0627 0004088 294.0185  66.0290 14.02072847  1373
GUOWANG GROUP 20 OBJECT*
1 68130U 26047B   26081.54392706 -.00000066  00000+0  55300-4 0  9999
2 68130  50.0054  18.0527 0002362 288.5351  71.5296 14.02358693  1363
GUOWANG GROUP 20 OBJECT*
1 68131U 26047C   26081.54289908 -.00000109  00000+0  26991-4 0  9991
2 68131  50.0022  18.0458 0003308 293.7898  66.2659 14.02708744  1378
GUOWANG GROUP 20 OBJECT*
1 68132U 26047D   26078.12556338 -.00000146  00000+0  36920-5 0  9991
2 68132  50.0078  31.9684 0008434 289.4802  70.5192 14.05881519   887
GUOWANG GROUP 20 OBJECT*
1 68133U 26047E   26081.32743227 -.00000117  00000+0  21599-4 0  9996
2 68133  50.0037  18.9087 0001845 286.6306  73.4395 14.03282701  1347
GUOWANG GROUP 20 OBJECT*
1 68134U 26047F   26081.53908163 -.00000024  00000+0  80292-4 0  9994
2 68134  50.0098  18.0376 0001549 290.5042  69.5697 14.03853988  1363
GUOWANG GROUP 20 OBJECT*
1 68135U 26047G   26081.61110949  .00000032  00000+0  11611-3 0  9997
2 68135  50.0130  17.7516 0002378 303.3923  56.6754 14.03554926  1388
GUOWANG GROUP 20 OBJECT*
1 68136U 26047H   26081.53812320 -.00000095  00000+0  35643-4 0  9993
2 68136  50.0090  18.0296 0002883 313.7948  46.2718 14.04117144  1367
